OBJECT_NAME,OBJECT_ID,EPOCH,MEAN_MOTION,ECCENTRICITY,INCLINATION,RA_OF_ASC_NODE,ARG_OF_PERICENTER,MEAN_ANOMALY,EPHEMERIS_TYPE,CLASSIFICATION_TYPE,NORAD_CAT_ID,ELEMENT_SET_NO,REV_AT_EPOCH,BSTAR,MEAN_MOTION_DOT,MEAN_MOTION_DDOT
EUTELSAT HOTBIRD 13F,2022-134A,2026-07-17T06:29:32.483040,1.00270720,.00019832,0.0561,284.8857,73.6700,46.9263,0,U,54048,999,1367,0,.77E-6,0
LDPE-2,2022-144A,2026-07-16T13:58:38.832096,1.00544717,.00023603,5.6823,63.4056,108.6599,202.8194,0,U,54219,999,1213,0,.7E-7,0
EUTELSAT HOTBIRD 13G,2022-146A,2026-07-17T06:29:32.483040,1.00270160,.00019963,0.0170,224.3937,313.0597,228.0418,0,U,54225,999,776,0,0,0
ZHONGXING-19,2022-148A,2026-07-17T05:29:38.719104,1.00269925,.00031521,0.0220,65.8112,69.1729,45.6713,0,U,54230,999,1368,0,0,0
GALAXY 31 (G-31),2022-153A,2026-07-17T04:08:38.984352,1.00271807,.00010647,0.0169,92.1300,27.4573,116.5480,0,U,54243,999,743,0,.3E-7,0
GALAXY 32 (G-32),2022-153B,2026-07-17T05:59:50.330112,1.00272434,.0001377,0.0104,47.3171,358.5249,248.1834,0,U,54244,999,1344,0,-.184E-5,0
EUTELSAT 10B,2022-157A,2026-07-17T06:28:40.065888,1.00266819,.000155,0.0604,95.4053,13.0760,293.7389,0,U,54259,999,1332,0,.57E-6,0
GALAXY 35 (G-35),2022-170A,2026-07-17T05:59:12.890400,1.00272251,.00018473,0.0150,81.5982,34.8105,175.3484,0,U,54741,999,1319,0,-.172E-5,0
GALAXY 36 (G-36),2022-170B,2026-07-17T06:00:27.769824,1.00271883,.00025889,0.0148,138.1492,320.6083,197.4244,0,U,54742,999,1307,0,-.195E-5,0
METEOSAT-12 (MTG-I1),2022-170C,2026-07-17T06:25:40.353888,1.00268293,.0003893,0.7275,20.0995,81.5150,289.5425,0,U,54743,999,1328,0,-.19E-6,0
SHIJIAN-23 (SJ-23),2023-002A,2026-07-16T18:12:51.318720,1.00076137,.000342,3.7915,77.9394,272.3811,345.4914,0,U,55131,999,1280,0,-.366E-5,0
APSTAR-6E,2023-005A,2026-07-16T17:58:59.546784,1.00265554,.00012698,0.0553,292.4334,338.8855,66.9853,0,U,55239,999,1898,0,-.329E-5,0
USA 342,2023-008A,2026-07-15T08:20:54.831840,1.00268904,.0000237,0.0068,33.1422,23.5747,25.6345,0,U,55263,999,1279,0,0,0
LDPE-3A,2023-008B,2026-07-17T07:02:36.811968,0.99149386,.00015528,2.4246,81.2908,74.9846,13.8030,0,U,55264,999,1211,0,-.281E-5,0
ELEKTRO-L 4,2023-016A,2026-07-16T17:18:35.014176,1.00270652,.00015296,0.1167,278.4001,256.3747,185.2061,0,U,55506,999,1263,0,-.69E-6,0
AMAZONAS NEXUS,2023-017A,2026-07-17T06:08:27.003840,1.00269747,.00044198,0.0350,44.2577,43.2349,238.6889,0,U,55508,999,734,0,-.292E-5,0
ZHONGXING-26,2023-023A,2026-07-16T19:02:57.321600,1.00269487,.00032927,0.0634,71.3638,31.3837,242.7195,0,U,55686,999,1252,0,-.364E-5,0
LUCH-5X (OLYMP-K 2),2023-031A,2026-07-16T18:15:40.366368,1.00273578,.0001121,0.0283,94.5630,189.9934,345.9278,0,U,55841,999,1223,0,.22E-6,0
GAOFEN-13 02,2023-036A,2026-07-17T04:39:38.783232,1.00274027,.00036741,1.0285,4.8500,337.2502,171.0768,0,U,55912,999,1239,0,-.228E-5,0
SES-18,2023-038A,2026-07-17T05:56:20.664960,1.00270469,.00007761,0.0473,248.5114,313.9991,78.5415,0,U,55970,999,1240,0,-.111E-5,0
SES-19,2023-038B,2026-07-16T17:48:48.828384,1.00270104,.00015591,0.0105,23.6874,89.8174,313.3459,0,U,55971,999,1238,0,.77E-6,0
INTELSAT 40E (IS-40E),2023-052A,2026-07-17T05:59:50.330112,1.00271699,.00022722,0.0146,83.5860,60.1271,150.3153,0,U,56174,999,1212,0,-.184E-5,0
VIASAT-3 F1,2023-060A,2026-07-14T19:50:08.246112,1.00270317,.00007716,0.0149,26.8771,79.6667,34.7004,0,U,56370,999,1171,0,0,0
ARCTURUS,2023-060B,2026-07-17T02:17:21.689088,1.00593851,.00011,2.8487,79.5684,132.3516,218.5679,0,U,56371,999,1175,0,-.355E-5,0
GS-1,2023-060C,2026-07-16T18:52:43.302720,1.00266298,.00033612,2.7990,79.4806,280.4391,307.1481,0,U,56372,999,783,0,-.233E-5,0
BEIDOU-3 G4,2023-066A,2026-07-17T07:05:44.013120,1.00271920,.00049453,0.4588,339.5854,185.8011,16.2293,0,U,56564,999,1169,0,-.29E-5,0
ARABSAT-7B (BADR-8),2023-075A,2026-07-17T04:50:34.963584,1.00271489,.00034448,0.0730,29.7092,1.4078,2.5443,0,U,56757,999,1141,0,.134E-5,0
NVS-01 (IRNSS-1J),2023-076A,2026-07-17T07:02:44.300256,1.00277571,.00031016,2.0965,242.9729,20.4934,266.7429,0,U,56759,999,1141,0,-.346E-5,0
NUSANTARA TIGA (SATRIA),2023-086A,2026-07-17T05:58:38.937792,1.00268131,.00021101,0.0361,15.0524,321.0912,194.5760,0,U,57045,999,1006,0,-.245E-5,0
H2SAT (HEINRICH HERTZ),2023-093A,2026-07-17T06:26:02.817888,1.00272815,.00001569,0.0262,101.4188,345.7635,305.1023,0,U,57213,999,1121,0,-.8E-7,0
SYRACUSE 4B,2023-093B,2026-07-17T04:41:20.849280,1.00272334,.00002161,0.0182,53.9215,208.7130,96.2492,0,U,57214,999,726,0,-.64E-6,0
